48218,ONEWEB-0196,2021,109.55,148.0,+,87.9,Active,1,LEO,Russia,UK,Commercial,Communications,Soyuz,1 48218U 21031J   24345.61240186  .00000262  00000+0  67264-3 0  9993,2 48218  87.9014  39.7854 0001723  99.5301 260.6023 13.14503739175503,13.14503739,0.0001723,LEO
48219,ONEWEB-0183,2021,109.55,148.0,+,87.9,Active,1,LEO,Russia,UK,Commercial,Communications,Soyuz,1 48219U 21031K   24346.11984664 -.00000121  00000+0 -35995-3 0  9998,2 48219  87.9015  39.6991 0001987 101.0322 259.1031 13.14501577175667,13.14501577,0.0001987,LEO
48220,ONEWEB-0185,2021,109.55,148.0,+,87.9,Active,1,LEO,Russia,UK,Commercial,Communications,Soyuz,1 48220U 21031L   24345.61320013  .00000215  00000+0  54677-3 0  9996,2 48220  87.9012  39.7709 0001903 107.6858 252.4480 13.14501352175528,13.14501352,0.0001903,LEO
48221,ONEWEB-0187,2021,109.55,148.0,+,87.9,Active,1,LEO,Russia,UK,Commercial,Communications,Soyuz,1 48221U 21031M   24345.88754707 -.00000121  00000+0 -36146-3 0  9996,2 48221  87.9013  39.7509 0001881 102.4205 257.7136 13.14503467175572,13.14503467,0.0001881,LEO
48222,ONEWEB-0192,2021,109.55,148.0,+,87.9,Active,1,LEO,Russia,UK,Commercial,Communications,Soyuz,1 48222U 21031N   24346.17219336 -.00000070  00000+0 -22423-3 0  9990,2 48222  87.9018  39.6921 0001713 100.8441 259.2881 13.14503938175536,13.14503938,0.0001713,LEO
48223,ONEWEB-0219,2021,109.55,148.0,+,87.9,Active,1,LEO,Russia,UK,Commercial,Communications,Soyuz,1 48223U 21031P   24346.15156764  .00000238  00000+0  60872-3 0  9998,2 48223  87.9015  39.6697 0001855 106.1459 253.9875 13.14501115175730,13.14501115,0.0001855,LEO
48224,ONEWEB-0202,2021,109.55,148.0,+,87.9,Active,1,LEO,Russia,UK,Commercial,Communications,Soyuz,1 48224U 21031Q   24346.13252933  .00000169  00000+0  42239-3 0  9992,2 48224  87.9013  39.6907 0001214 121.3370 238.7878 13.14501098175715,13.14501098,0.0001214,LEO
48225,ONEWEB-0204,2021,109.55,148.0,+,87.9,Active,1,LEO,Russia,UK,Commercial,Communications,Soyuz,1 48225U 21031R   24345.40545489 -.00000064  00000+0 -20589-3 0  9993,2 48225  87.9017  39.8472 0002157  98.0887 262.0488 13.14502504175506,13.14502504,0.0002157,LEO
