<?xml version="1.0" encoding="UTF-8"?>
<ndm xmlns:xsi="http://www.w3.org/2001/XMLSchema-instance" xsi:noNamespaceSchemaLocation="https://sanaregistry.org/r/ndmxml_unqualified/ndmxml-2.0.0-master-2.0.xsd">
<omm id="CCSDS_OMM_VERS" version="2.0">
<header><CREATION_DATE/><ORIGINATOR/></header><body><segment><metadata><OBJECT_NAME>ONEWEB-0196</OBJECT_NAME><OBJECT_ID>2021-031J</OBJECT_ID><CENTER_NAME>EARTH</CENTER_NAME><REF_FRAME>TEME</REF_FRAME><TIME_SYSTEM>UTC</TIME_SYSTEM><MEAN_ELEMENT_THEORY>SGP4</MEAN_ELEMENT_THEORY></metadata><data><meanElements><EPOCH>2024-12-10T14:41:51.520704</EPOCH><MEAN_MOTION>13.14503739</MEAN_MOTION><ECCENTRICITY>.0001723</ECCENTRICITY><INCLINATION>87.9014</INCLINATION><RA_OF_ASC_NODE>39.7854</RA_OF_ASC_NODE><ARG_OF_PERICENTER>99.5301</ARG_OF_PERICENTER><MEAN_ANOMALY>260.6023</MEAN_ANOMALY></meanElements><tleParameters><EPHEMERIS_TYPE>0</EPHEMERIS_TYPE><CLASSIFICATION_TYPE>U</CLASSIFICATION_TYPE><NORAD_CAT_ID>48218</NORAD_CAT_ID><ELEMENT_SET_NO>999</ELEMENT_SET_NO><REV_AT_EPOCH>17550</REV_AT_EPOCH><BSTAR>.67264E-3</BSTAR><MEAN_MOTION_DOT>.262E-5</MEAN_MOTION_DOT><MEAN_MOTION_DDOT>0</MEAN_MOTION_DDOT></tleParameters></data></segment></body></omm>
<omm id="CCSDS_OMM_VERS" version="2.0">
<header><CREATION_DATE/><ORIGINATOR/></header><body><segment><metadata><OBJECT_NAME>ONEWEB-0183</OBJECT_NAME><OBJECT_ID>2021-031K</OBJECT_ID><CENTER_NAME>EARTH</CENTER_NAME><REF_FRAME>TEME</REF_FRAME><TIME_SYSTEM>UTC</TIME_SYSTEM><MEAN_ELEMENT_THEORY>SGP4</MEAN_ELEMENT_THEORY></metadata><data><meanElements><EPOCH>2024-12-11T02:52:34.749696</EPOCH><MEAN_MOTION>13.14501577</MEAN_MOTION><ECCENTRICITY>.0001987</ECCENTRICITY><INCLINATION>87.9015</INCLINATION><RA_OF_ASC_NODE>39.6991</RA_OF_ASC_NODE><ARG_OF_PERICENTER>101.0322</ARG_OF_PERICENTER><MEAN_ANOMALY>259.1031</MEAN_ANOMALY></meanElements><tleParameters><EPHEMERIS_TYPE>0</EPHEMERIS_TYPE><CLASSIFICATION_TYPE>U</CLASSIFICATION_TYPE><NORAD_CAT_ID>48219</NORAD_CAT_ID><ELEMENT_SET_NO>999</ELEMENT_SET_NO><REV_AT_EPOCH>17566</REV_AT_EPOCH><BSTAR>-.35995E-3</BSTAR><MEAN_MOTION_DOT>-.121E-5</MEAN_MOTION_DOT><MEAN_MOTION_DDOT>0</MEAN_MOTION_DDOT></tleParameters></data></segment></body></omm>
<omm id="CCSDS_OMM_VERS" version="2.0">
<header><CREATION_DATE/><ORIGINATOR/></header><body><segment><metadata><OBJECT_NAME>ONEWEB-0185</OBJECT_NAME><OBJECT_ID>2021-031L</OBJECT_ID><CENTER_NAME>EARTH</CENTER_NAME><REF_FRAME>TEME</REF_FRAME><TIME_SYSTEM>UTC</TIME_SYSTEM><MEAN_ELEMENT_THEORY>SGP4</MEAN_ELEMENT_THEORY></metadata><data><meanElements><EPOCH>2024-12-10T14:43:00.491232</EPOCH><MEAN_MOTION>13.14501352</MEAN_MOTION><ECCENTRICITY>.0001903</ECCENTRICITY><INCLINATION>87.9012</INCLINATION><RA_OF_ASC_NODE>39.7709</RA_OF_ASC_NODE><ARG_OF_PERICENTER>107.6858</ARG_OF_PERICENTER><MEAN_ANOMALY>252.4480</MEAN_ANOMALY></meanElements><tleParameters><EPHEMERIS_TYPE>0</EPHEMERIS_TYPE><CLASSIFICATION_TYPE>U</CLASSIFICATION_TYPE><NORAD_CAT_ID>48220</NORAD_CAT_ID><ELEMENT_SET_NO>999</ELEMENT_SET_NO><REV_AT_EPOCH>17552</REV_AT_EPOCH><BSTAR>.54677E-3</BSTAR><MEAN_MOTION_DOT>.215E-5</MEAN_MOTION_DOT><MEAN_MOTION_DDOT>0</MEAN_MOTION_DDOT></tleParameters></data></segment></body></omm>
<omm id="CCSDS_OMM_VERS" version="2.0">
<header><CREATION_DATE/><ORIGINATOR/></header><body><segment><metadata><OBJECT_NAME>ONEWEB-0187</OBJECT_NAME><OBJECT_ID>2021-031M</OBJECT_ID><CENTER_NAME>EARTH</CENTER_NAME><REF_FRAME>TEME</REF_FRAME><TIME_SYSTEM>UTC</TIME_SYSTEM><MEAN_ELEMENT_THEORY>SGP4</MEAN_ELEMENT_THEORY></metadata><data><meanElements><EPOCH>2024-12-10T21:18:04.066848</EPOCH><MEAN_MOTION>13.14503467</MEAN_MOTION><ECCENTRICITY>.0001881</ECCENTRICITY><INCLINATION>87.9013</INCLINATION><RA_OF_ASC_NODE>39.7509</RA_OF_ASC_NODE><ARG_OF_PERICENTER>102.4205</ARG_OF_PERICENTER><MEAN_ANOMALY>257.7136</MEAN_ANOMALY></meanElements><tleParameters><EPHEMERIS_TYPE>0</EPHEMERIS_TYPE><CLASSIFICATION_TYPE>U</CLASSIFICATION_TYPE><NORAD_CAT_ID>48221</NORAD_CAT_ID><ELEMENT_SET_NO>999</ELEMENT_SET_NO><REV_AT_EPOCH>17557</REV_AT_EPOCH><BSTAR>-.36146E-3</BSTAR><MEAN_MOTION_DOT>-.121E-5</MEAN_MOTION_DOT><MEAN_MOTION_DDOT>0</MEAN_MOTION_DDOT></tleParameters></data></segment></body></omm>
<omm id="CCSDS_OMM_VERS" version="2.0">
<header><CREATION_DATE/><ORIGINATOR/></header><body><segment><metadata><OBJECT_NAME>ONEWEB-0192</OBJECT_NAME><OBJECT_ID>2021-031N</OBJECT_ID><CENTER_NAME>EARTH</CENTER_NAME><REF_FRAME>TEME</REF_FRAME><TIME_SYSTEM>UTC</TIME_SYSTEM><MEAN_ELEMENT_THEORY>SGP4</MEAN_ELEMENT_THEORY></metadata><data><meanElements><EPOCH>2024-12-11T04:07:57.506304</EPOCH><MEAN_MOTION>13.14503938</MEAN_MOTION><ECCENTRICITY>.0001713</ECCENTRICITY><INCLINATION>87.9018</INCLINATION><RA_OF_ASC_NODE>39.6921</RA_OF_ASC_NODE><ARG_OF_PERICENTER>100.8441</ARG_OF_PERICENTER><MEAN_ANOMALY>259.2881</MEAN_ANOMALY></meanElements><tleParameters><EPHEMERIS_TYPE>0</EPHEMERIS_TYPE><CLASSIFICATION_TYPE>U</CLASSIFICATION_TYPE><NORAD_CAT_ID>48222</NORAD_CAT_ID><ELEMENT_SET_NO>999</ELEMENT_SET_NO><REV_AT_EPOCH>17553</REV_AT_EPOCH><BSTAR>-.22423E-3</BSTAR><MEAN_MOTION_DOT>-.7E-6</MEAN_MOTION_DOT><MEAN_MOTION_DDOT>0</MEAN_MOTION_DDOT></tleParameters></data></segment></body></omm>
<omm id="CCSDS_OMM_VERS" version="2.0">
<header><CREATION_DATE/><ORIGINATOR/></header><body><segment><metadata><OBJECT_NAME>ONEWEB-0219</OBJECT_NAME><OBJECT_ID>2021-031P</OBJECT_ID><CENTER_NAME>EARTH</CENTER_NAME><REF_FRAME>TEME</REF_FRAME><TIME_SYSTEM>UTC</TIME_SYSTEM><MEAN_ELEMENT_THEORY>SGP4</MEAN_ELEMENT_THEORY></metadata><data><meanElements><EPOCH>2024-12-11T03:38:15.444096</EPOCH><MEAN_MOTION>13.14501115</MEAN_MOTION><ECCENTRICITY>.0001855</ECCENTRICITY><INCLINATION>87.9015</INCLINATION><RA_OF_ASC_NODE>39.6697</RA_OF_ASC_NODE><ARG_OF_PERICENTER>106.1459</ARG_OF_PERICENTER><MEAN_ANOMALY>253.9875</MEAN_ANOMALY></meanElements><tleParameters><EPHEMERIS_TYPE>0</EPHEMERIS_TYPE><CLASSIFICATION_TYPE>U</CLASSIFICATION_TYPE><NORAD_CAT_ID>48223</NORAD_CAT_ID><ELEMENT_SET_NO>999</ELEMENT_SET_NO><REV_AT_EPOCH>17573</REV_AT_EPOCH><BSTAR>.60872E-3</BSTAR><MEAN_MOTION_DOT>.238E-5</MEAN_MOTION_DOT><MEAN_MOTION_DDOT>0</MEAN_MOTION_DDOT></tleParameters></data></segment></body></omm>
<omm id="CCSDS_OMM_VERS" version="2.0">
<header><CREATION_DATE/><ORIGINATOR/></header><body><segment><metadata><OBJECT_NAME>ONEWEB-0202</OBJECT_NAME><OBJECT_ID>2021-031Q</OBJECT_ID><CENTER_NAME>EARTH</CENTER_NAME><REF_FRAME>TEME</REF_FRAME><TIME_SYSTEM>UTC</TIME_SYSTEM><MEAN_ELEMENT_THEORY>SGP4</MEAN_ELEMENT_THEORY></metadata><data><meanElements><EPOCH>2024-12-11T03:10:50.534112</EPOCH><MEAN_MOTION>13.14501098</MEAN_MOTION><ECCENTRICITY>.0001214</ECCENTRICITY><INCLINATION>87.9013</INCLINATION><RA_OF_ASC_NODE>39.6907</RA_OF_ASC_NODE><ARG_OF_PERICENTER>121.3370</ARG_OF_PERICENTER><MEAN_ANOMALY>238.7878</MEAN_ANOMALY></meanElements><tleParameters><EPHEMERIS_TYPE>0</EPHEMERIS_TYPE><CLASSIFICATION_TYPE>U</CLASSIFICATION_TYPE><NORAD_CAT_ID>48224</NORAD_CAT_ID><ELEMENT_SET_NO>999</ELEMENT_SET_NO><REV_AT_EPOCH>17571</REV_AT_EPOCH><BSTAR>.42239E-3</BSTAR><MEAN_MOTION_DOT>.169E-5</MEAN_MOTION_DOT><MEAN_MOTION_DDOT>0</MEAN_MOTION_DDOT></tleParameters></data></segment></body></omm>
<omm id="CCSDS_OMM_VERS" version="2.0">
<header><CREATION_DATE/><ORIGINATOR/></header><body><segment><metadata><OBJECT_NAME>ONEWEB-0204</OBJECT_NAME><OBJECT_ID>2021-031R</OBJECT_ID><CENTER_NAME>EARTH</CENTER_NAME><REF_FRAME>TEME</REF_FRAME><TIME_SYSTEM>UTC</TIME_SYSTEM><MEAN_ELEMENT_THEORY>SGP4</MEAN_ELEMENT_THEORY></metadata><data><meanElements><EPOCH>2024-12-10T09:43:51.302496</EPOCH><MEAN_MOTION>13.14502504</MEAN_MOTION><ECCENTRICITY>.0002157</ECCENTRICITY><INCLINATION>87.9017</INCLINATION><RA_OF_ASC_NODE>39.8472</RA_OF_ASC_NODE><ARG_OF_PERICENTER>98.0887</ARG_OF_PERICENTER><MEAN_ANOMALY>262.0488</MEAN_ANOMALY></meanElements><tleParameters><EPHEMERIS_TYPE>0</EPHEMERIS_TYPE><CLASSIFICATION_TYPE>U</CLASSIFICATION_TYPE><NORAD_CAT_ID>48225</NORAD_CAT_ID><ELEMENT_SET_NO>999</ELEMENT_SET_NO><REV_AT_EPOCH>17550</REV_AT_EPOCH><BSTAR>-.20589E-3</BSTAR><MEAN_MOTION_DOT>-.64E-6</MEAN_MOTION_DOT><MEAN_MOTION_DDOT>0</MEAN_MOTION_DDOT></tleParameters></data></segment></body></omm>

</ndm>
